start=new Date('2023-04-18T00:00:00.000Z').valueOf();
sats=[{"FILE":"3889391","GP_ID":"230267455","OBJECT_NAME":"STARLINK-4468","NORAD_CAT_ID":"53969","REF_FRAME":"TEME","SITE":"AFWTR","OBJECT_TYPE":"PAYLOAD","RA_OF_ASC_NODE":"288.8036","DECAY_DATE":null,"MEAN_ELEMENT_THEORY":"SGP4","COUNTRY_CODE":"US","TIME_SYSTEM":"UTC","BSTAR":"0.00049679000000","OBJECT_ID":"2022-125F","MEAN_ANOMALY":"266.0851","ECCENTRICITY":"0.00013210","PERIAPSIS":"538.817","SEMIMAJOR_AXIS":"6917.865","EPHEMERIS_TYPE":"0","ELEMENT_SET_NO":"999","CLASSIFICATION_TYPE":"U","PERIOD":"95.437","RCS_SIZE":"LARGE","REV_AT_EPOCH":"2976","ARG_OF_PERICENTER":"94.0292","MEAN_MOTION_DDOT":"0.0000000000000","EPOCH":"2023-04-17T18:33:00.556704","INCLINATION":"53.2142","LAUNCH_DATE":"2022-10-05","MEAN_MOTION_DOT":"0.00007628","TLE_LINE1":"1 53969U 22125F   23107.77292311  .00007628  00000-0  49679-3 0  9990","CENTER_NAME":"EARTH","MEAN_MOTION":"15.08844890","APOAPSIS":"540.644","TLE_LINE2":"2 53969  53.2142 288.8036 0001321  94.0292 266.0851 15.08844890 29768"},{"RA_OF_ASC_NODE":"284.0392","DECAY_DATE":null,"OBJECT_NAME":"STARLINK-4567","FILE":"3889271","GP_ID":"230239496","OBJECT_TYPE":"PAYLOAD","SITE":"AFWTR","REF_FRAME":"TEME","NORAD_CAT_ID":"53970","MEAN_ANOMALY":"287.9520","ECCENTRICITY":"0.00012590","PERIAPSIS":"538.847","COUNTRY_CODE":"US","TIME_SYSTEM":"UTC","MEAN_ELEMENT_THEORY":"SGP4","OBJECT_ID":"2022-125G","BSTAR":"0.00025544000000","RCS_SIZE":"LARGE","PERIOD":"95.437","LAUNCH_DATE":"2022-10-05","INCLINATION":"53.2160","MEAN_MOTION_DDOT":"0.0000000000000","EPOCH":"2023-04-17T19:25:27.902208","ARG_OF_PERICENTER":"72.1610","REV_AT_EPOCH":"2990","EPHEMERIS_TYPE":"0","SEMIMAJOR_AXIS":"6917.853","CLASSIFICATION_TYPE":"U","ELEMENT_SET_NO":"999","CENTER_NAME":"EARTH","APOAPSIS":"540.589","TLE_LINE2":"2 53970  53.2160 284.0392 0001259  72.1610 287.9520 15.08848926 29909","MEAN_MOTION":"15.08848926","MEAN_MOTION_DOT":"0.00003781","TLE_LINE1":"1 53970U 22125G   23107.80935072  .00003781  00000-0  25544-3 0  9995"},{"REF_FRAME":"TEME","NORAD_CAT_ID":"53971","SITE":"AFWTR","OBJECT_TYPE":"PAYLOAD","GP_ID":"230266454","FILE":"3889391","OBJECT_NAME":"STARLINK-4639","DECAY_DATE":null,"RA_OF_ASC_NODE":"288.1849","OBJECT_ID":"2022-125H","BSTAR":"0.00025457000000","TIME_SYSTEM":"UTC","COUNTRY_CODE":"US","MEAN_ELEMENT_THEORY":"SGP4","PERIAPSIS":"539.097","ECCENTRICITY":"0.00009170","MEAN_ANOMALY":"288.9747","ELEMENT_SET_NO":"999","CLASSIFICATION_TYPE":"U","EPHEMERIS_TYPE":"0","SEMIMAJOR_AXIS":"6917.866","REV_AT_EPOCH":"2978","ARG_OF_PERICENTER":"71.1345","LAUNCH_DATE":"2022-10-05","INCLINATION":"53.2143","EPOCH":"2023-04-17T21:38:28.584672","MEAN_MOTION_DDOT":"0.0000000000000","RCS_SIZE":"LARGE","PERIOD":"95.437","TLE_LINE1":"1 53971U 22125H   23107.90171973  .00003767  00000-0  25457-3 0  9996","MEAN_MOTION_DOT":"0.00003767","MEAN_MOTION":"15.08844613","TLE_LINE2":"2 53971  53.2143 288.1849 0000917  71.1345 288.9747 15.08844613 29784","APOAPSIS":"540.366","CENTER_NAME":"EARTH"},{"SEMIMAJOR_AXIS":"6917.872","EPHEMERIS_TYPE":"0","CLASSIFICATION_TYPE":"U","ELEMENT_SET_NO":"999","PERIOD":"95.437","RCS_SIZE":"LARGE","EPOCH":"2023-04-17T18:53:37.293216","MEAN_MOTION_DDOT":"0.0000000000000","LAUNCH_DATE":"2022-10-05","INCLINATION":"53.2158","REV_AT_EPOCH":"2983","ARG_OF_PERICENTER":"92.9645","MEAN_MOTION_DOT":"0.00001816","TLE_LINE1":"1 53972U 22125J   23107.78723719  .00001816  00000-0  13215-3 0  9996","CENTER_NAME":"EARTH","TLE_LINE2":"2 53972  53.2158 283.9014 0000825  92.9645 267.1441 15.08842734 29838","APOAPSIS":"540.308","MEAN_MOTION":"15.08842734","OBJECT_NAME":"STARLINK-5157","FILE":"3889391","GP_ID":"230266704","SITE":"AFWTR","OBJECT_TYPE":"PAYLOAD","NORAD_CAT_ID":"53972","REF_FRAME":"TEME","DECAY_DATE":null,"RA_OF_ASC_NODE":"283.9014","MEAN_ELEMENT_THEORY":"SGP4","COUNTRY_CODE":"US","TIME_SYSTEM":"UTC","BSTAR":"0.00013215000000","OBJECT_ID":"2022-125J","MEAN_ANOMALY":"267.1441","ECCENTRICITY":"0.00008250","PERIAPSIS":"539.166"},{"MEAN_MOTION_DOT":"0.00024070","TLE_LINE1":"1 53973U 22125K   23107.89434880  .00024070  00000-0  15247-2 0  9990","CENTER_NAME":"EARTH","MEAN_MOTION":"15.08854353","APOAPSIS":"540.482","TLE_LINE2":"2 53973  53.2137 288.1407 0001128  87.4771 272.6350 15.08854353 29789","EPHEMERIS_TYPE":"0","SEMIMAJOR_AXIS":"6917.837","ELEMENT_SET_NO":"999","CLASSIFICATION_TYPE":"U","PERIOD":"95.437","RCS_SIZE":"LARGE","ARG_OF_PERICENTER":"87.4771","REV_AT_EPOCH":"2978","INCLINATION":"53.2137","LAUNCH_DATE":"2022-10-05","MEAN_MOTION_DDOT":"0.0000000000000","EPOCH":"2023-04-17T21:27:51.736320","TIME_SYSTEM":"UTC","COUNTRY_CODE":"US","MEAN_ELEMENT_THEORY":"SGP4","OBJECT_ID":"2022-125K","BSTAR":"0.00152470000000","MEAN_ANOMALY":"272.6350","PERIAPSIS":"538.921","ECCENTRICITY":"0.00011280","GP_ID":"230267956","FILE":"3889391","OBJECT_NAME":"STARLINK-5156","REF_FRAME":"TEME","NORAD_CAT_ID":"53973","SITE":"AFWTR","OBJECT_TYPE":"PAYLOAD","DECAY_DATE":null,"RA_OF_ASC_NODE":"288.1407"},{"DECAY_DATE":null,"RA_OF_ASC_NODE":"268.0032","OBJECT_TYPE":"PAYLOAD","SITE":"AFWTR","NORAD_CAT_ID":"53974","REF_FRAME":"TEME","OBJECT_NAME":"STARLINK-5159","FILE":"3889391","GP_ID":"230267705","ECCENTRICITY":"0.00011560","PERIAPSIS":"538.920","MEAN_ANOMALY":"268.9324","BSTAR":"0.00009888100000","OBJECT_ID":"2022-125L","MEAN_ELEMENT_THEORY":"SGP4","COUNTRY_CODE":"US","TIME_SYSTEM":"UTC","EPOCH":"2023-04-17T20:42:45.598464","MEAN_MOTION_DDOT":"0.0000000000000","LAUNCH_DATE":"2022-10-05","INCLINATION":"53.2158","ARG_OF_PERICENTER":"91.1800","REV_AT_EPOCH":"3006","PERIOD":"95.437","RCS_SIZE":"LARGE","CLASSIFICATION_TYPE":"U","ELEMENT_SET_NO":"999","SEMIMAJOR_AXIS":"6917.855","EPHEMERIS_TYPE":"0","TLE_LINE2":"2 53974  53.2158 268.0032 0001156  91.1800 268.9324 15.08848284 30068","APOAPSIS":"540.520","MEAN_MOTION":"15.08848284","CENTER_NAME":"EARTH","TLE_LINE1":"1 53974U 22125L   23107.86302776  .00001287  00000-0  98881-4 0  9998","MEAN_MOTION_DOT":"0.00001287"},{"ELEMENT_SET_NO":"999","CLASSIFICATION_TYPE":"U","EPHEMERIS_TYPE":"0","SEMIMAJOR_AXIS":"6912.846","REV_AT_EPOCH":"2985","ARG_OF_PERICENTER":"81.3807","LAUNCH_DATE":"2022-10-05","INCLINATION":"53.2142","EPOCH":"2023-04-17T20:47:01.269888","MEAN_MOTION_DDOT":"0.0000000000000","RCS_SIZE":"LARGE","PERIOD":"95.333","TLE_LINE1":"1 53975U 22125M   23107.86598692  .00019747  00000-0  12000-2 0  9990","MEAN_MOTION_DOT":"0.00019747","MEAN_MOTION":"15.10488469","APOAPSIS":"535.544","TLE_LINE2":"2 53975  53.2142 282.9885 0001204  81.3807 278.7323 15.10488469 29856","CENTER_NAME":"EARTH","REF_FRAME":"TEME","NORAD_CAT_ID":"53975","OBJECT_TYPE":"PAYLOAD","SITE":"AFWTR","GP_ID":"230266955","FILE":"3889391","OBJECT_NAME":"STARLINK-5137","DECAY_DATE":null,"RA_OF_ASC_NODE":"282.9885","OBJECT_ID":"2022-125M","BSTAR":"0.00120000000000","TIME_SYSTEM":"UTC","COUNTRY_CODE":"US","MEAN_ELEMENT_THEORY":"SGP4","ECCENTRICITY":"0.00012040","PERIAPSIS":"533.879","MEAN_ANOMALY":"278.7323"},{"MEAN_ELEMENT_THEORY":"SGP4","COUNTRY_CODE":"US","TIME_SYSTEM":"UTC","BSTAR":"0.00069970000000","OBJECT_ID":"2022-125N","MEAN_ANOMALY":"271.9984","ECCENTRICITY":"0.00011040","PERIAPSIS":"538.968","GP_ID":"230267205","FILE":"3889391","OBJECT_NAME":"STARLINK-5134","NORAD_CAT_ID":"53976","REF_FRAME":"TEME","SITE":"AFWTR","OBJECT_TYPE":"PAYLOAD","RA_OF_ASC_NODE":"268.1109","DECAY_DATE":null,"MEAN_MOTION_DOT":"0.00010867","TLE_LINE1":"1 53976U 22125N   23107.87873111  .00010867  00000-0  69970-3 0  9997","CENTER_NAME":"EARTH","MEAN_MOTION":"15.08844486","APOAPSIS":"540.495","TLE_LINE2":"2 53976  53.2155 268.1109 0001104  88.1134 271.9984 15.08844486 30068","SEMIMAJOR_AXIS":"6917.867","EPHEMERIS_TYPE":"0","ELEMENT_SET_NO":"999","CLASSIFICATION_TYPE":"U","RCS_SIZE":"LARGE","PERIOD":"95.437","ARG_OF_PERICENTER":"88.1134","REV_AT_EPOCH":"3006","EPOCH":"2023-04-17T21:05:22.367904","MEAN_MOTION_DDOT":"0.0000000000000","INCLINATION":"53.2155","LAUNCH_DATE":"2022-10-05"},{"CENTER_NAME":"EARTH","TLE_LINE2":"2 53977  53.2154 283.5754 0001096  82.0857 278.0259 15.08858025 29841","APOAPSIS":"540.448","MEAN_MOTION":"15.08858025","MEAN_MOTION_DOT":"0.00033721","TLE_LINE1":"1 53977U 22125P   23107.84883658  .00033721  00000-0  21257-2 0  9991","RCS_SIZE":"LARGE","PERIOD":"95.436","EPOCH":"2023-04-17T20:22:19.480512","MEAN_MOTION_DDOT":"0.0000000000000","INCLINATION":"53.2154","LAUNCH_DATE":"2022-10-05","ARG_OF_PERICENTER":"82.0857","REV_AT_EPOCH":"2984","SEMIMAJOR_AXIS":"6917.825","EPHEMERIS_TYPE":"0","CLASSIFICATION_TYPE":"U","ELEMENT_SET_NO":"999","MEAN_ANOMALY":"278.0259","ECCENTRICITY":"0.00010960","PERIAPSIS":"538.932","MEAN_ELEMENT_THEORY":"SGP4","COUNTRY_CODE":"US","TIME_SYSTEM":"UTC","BSTAR":"0.00212570000000","OBJECT_ID":"2022-125P","RA_OF_ASC_NODE":"283.5754","DECAY_DATE":null,"OBJECT_NAME":"STARLINK-5094","FILE":"3889391","GP_ID":"230267456","SITE":"AFWTR","OBJECT_TYPE":"PAYLOAD","NORAD_CAT_ID":"53977","REF_FRAME":"TEME"},{"CENTER_NAME":"EARTH","MEAN_MOTION":"15.08846377","TLE_LINE2":"2 53978  53.2167 283.1472 0001350  92.0844 268.0303 15.08846377 29856","APOAPSIS":"540.660","MEAN_MOTION_DOT":"0.00001879","TLE_LINE1":"1 53978U 22125Q   23107.89392440  .00001879  00000-0  13611-3 0  9996","RCS_SIZE":"LARGE","PERIOD":"95.437","REV_AT_EPOCH":"2985","ARG_OF_PERICENTER":"92.0844","EPOCH":"2023-04-17T21:27:15.068160","MEAN_MOTION_DDOT":"0.0000000000000","INCLINATION":"53.2167","LAUNCH_DATE":"2022-10-05","SEMIMAJOR_AXIS":"6917.861","EPHEMERIS_TYPE":"0","ELEMENT_SET_NO":"999","CLASSIFICATION_TYPE":"U","MEAN_ANOMALY":"268.0303","PERIAPSIS":"538.792","ECCENTRICITY":"0.00013500","MEAN_ELEMENT_THEORY":"SGP4","TIME_SYSTEM":"UTC","COUNTRY_CODE":"US","BSTAR":"0.00013611000000","OBJECT_ID":"2022-125Q","DECAY_DATE":null,"RA_OF_ASC_NODE":"283.1472","GP_ID":"230268206","FILE":"3889391","OBJECT_NAME":"STARLINK-5148","NORAD_CAT_ID":"53978","REF_FRAME":"TEME","SITE":"AFWTR","OBJECT_TYPE":"PAYLOAD"}];
